STARLINK-31381          
1 59469U 24068Q   26068.24556679  .00000158  00000+0  15254-4 0  9993
2 59469  43.0026  33.6651 0001347 260.9479  99.1220 15.27584318108495
FLOCK 4G-18             
1 62680U 25009BZ  26068.19114186  .00011766  00000+0  44319-3 0  9995
2 62680  97.4054 150.5008 0004100 335.7331  24.3715 15.27241676121267
